STARLINK-30323          
1 57634U 23122C   26196.03113133  .00000309  00000+0  20754-4 0  9997
2 57634  43.0018  82.1902 0001446 258.4700 101.5989 15.27579046161812
STARLINK-30329          
1 57635U 23122D   26195.99781196  .00003880  00000+0  15041-3 0  9991
2 57635  43.0004  93.8293 0001341 255.7383 104.3320 15.27587624161676
STARLINK-30330          
1 57636U 23122E   26196.06706532 -.00000431  00000+0 -61339-5 0  9996
2 57636  42.9986  93.4905 0001604 271.1128  88.9539 15.27570085161684
STARLINK-30311          
1 57637U 23122F   26196.14642918 -.00005255  00000+0 -18145-3 0  9997
2 57637  43.0068  92.3730 0001604 262.0383  98.0286 15.27596815161707
STARLINK-30328          
1 57638U 23122G   26196.02340720  .00000761  00000+0  37165-4 0  9990
2 57638  43.0032  82.0766 0001431 268.0943  91.9745 15.27592046161827
STARLINK-30326          
1 57639U 23122H   26196.10674569 -.00000024  00000+0  86359-5 0  9994
2 57639  43.0034  92.9216 0001133 276.2250  83.8472 15.27573778161694
STARLINK-30324          
1 57640U 23122J   26195.99395485  .00000899  00000+0  42195-4 0  9997
2 57640  43.0023  93.7974 0001379 258.3393 101.7304 15.27583050161660
STARLINK-30312          
1 57641U 23122K   26196.07462145 -.00001149  00000+0 -32251-4 0  9999
2 57641  43.0004  92.6921 0001431 263.9385  96.1304 15.27576253161699
STARLINK-30263          
1 57642U 23122L   26196.08489957  .00000238  00000+0  18164-4 0  9994
2 57642  43.0037  92.7687 0000828 258.9171 101.1588 15.27578232161692
STARLINK-30280          
1 57643U 23122M   26195.96183406 -.00000267  00000+0 -16563-6 0  9998
2 57643  42.9969  93.5678 0001670 265.1113  94.9548 15.27574032161673
STARLINK-30247          
1 57644U 23122N   26193.93101561  .00016316  00000+0  60250-3 0  9995
2 57644  43.0020 104.9889 0000487 267.8353  92.2442 15.27504103161367
STARLINK-30277          
1 57645U 23122P   26195.38589137 -.00010198  00000+0 -36113-3 0  9991
2 57645  43.0101 314.8940 0002177 271.1602  88.9000 15.27617443163255
STARLINK-30265          
1 57646U 23122Q   26195.94769340 -.00007474  00000+0 -26209-3 0  9998
2 57646  43.0036  93.4595 0001287 258.1320 101.9387 15.27612707161678
STARLINK-30286          
1 57647U 23122R   26195.96568941  .00000300  00000+0  20416-4 0  9999
2 57647  43.0025  93.5912 0001031 253.5700 106.5038 15.27579592161677
STARLINK-30243          
1 57648U 23122S   26194.15284514 -.00014847  00000+0 -53003-3 0  9991
2 57648  43.0020 104.0604 0001732 251.6176 108.4487 15.27643002161399
STARLINK-30299          
1 57650U 23122U   26196.03492455 -.00000104  00000+0  57452-5 0  9992
2 57650  43.0044  93.2520 0001286 278.5147  81.5559 15.27590214161683
STARLINK-30294          
1 57651U 23122V   26195.95290262  .00000084  00000+0  12591-4 0  9995
2 57651  43.0047  82.4775 0001547 265.9568  94.1107 15.27573895161805
STARLINK-30276          
1 57652U 23122W   26196.11058286 -.00012705  00000+0 -45211-3 0  9992
2 57652  43.0027  92.9567 0001862 272.1696  87.8942 15.27638564161699
STARLINK-30289          
1 57653U 23122X   26196.00686194 -.00000029  00000+0  84682-5 0  9998
2 57653  43.0043  82.8301 0001253 266.2467  93.8241 15.27579027161794
STARLINK-30267          
1 57663U 23124A   26195.69288694 -.00000559  00000+0 -54185-5 0  9992
2 57663  53.1627 336.8114 0001216  84.2921 275.8221 15.34390577163017
STARLINK-30298          
1 57665U 23124C   26195.71383532  .00001610  00000+0  58781-4 0  9996
2 57665  53.1619 336.2478 0000817  93.3987 266.7109 15.34393862163021
STARLINK-30301          
1 57666U 23124D   26195.97481891  .00014253  00000+0  42829-3 0  9994
2 57666  53.1588  35.7598 0002302  97.5047 262.6217 15.34685817162180
STARLINK-30275          
1 57667U 23124E   26195.66971208  .00001145  00000+0  45001-4 0  9999
2 57667  53.1634 336.4853 0000793  96.8324 263.2769 15.34394912163015
STARLINK-30278          
1 57668U 23124F   26195.69497207  .00000107  00000+0  14306-4 0  9996
2 57668  53.1622 336.6637 0001394  97.8788 262.2373 15.34391709163019
STARLINK-30271          
1 57669U 23124G   26195.67063538  .00000548  00000+0  29401-4 0  9992
2 57669  53.1620 336.3802 0001012  86.3093 273.8024 15.31703515163018
STARLINK-30322          
1 57670U 23124H   26195.67602936  .00002262  00000+0  78069-4 0  9994
2 57670  53.1632 336.5309 0001450 117.6693 242.4457 15.34393934163012
STARLINK-30296          
1 57671U 23124J   26195.67393704 -.00000777  00000+0 -11864-4 0  9996
2 57671  53.1615 336.6456 0001179 122.9524 237.1592 15.34398307163018
STARLINK-30274          
1 57672U 23124K   26195.71175608 -.00010752  00000+0 -30755-3 0  9996
2 57672  53.1629 336.2812 0000895  58.9577 301.1514 15.34399745163020
STARLINK-30316          
1 57673U 23124L   26195.65500827  .00000484  00000+0  25464-4 0  9996
2 57673  53.1625 336.5343 0001510  40.0813 320.0301 15.34391389163018
STARLINK-30313          
1 57676U 23124P   26195.71105448 -.00000081  00000+0  93812-5 0  9993
2 57676  53.1628 336.9827 0001276  75.8368 284.2774 15.30189970163017
