OBJECT_NAME,OBJECT_ID,EPOCH,MEAN_MOTION,ECCENTRICITY,INCLINATION,RA_OF_ASC_NODE,ARG_OF_PERICENTER,MEAN_ANOMALY,EPHEMERIS_TYPE,CLASSIFICATION_TYPE,NORAD_CAT_ID,ELEMENT_SET_NO,REV_AT_EPOCH,BSTAR,MEAN_MOTION_DOT,MEAN_MOTION_DDOT
STARLINK-30323,2023-122C,2026-07-15T00:44:49.746912,15.27579046,.0001446,43.0018,82.1902,258.4700,101.5989,0,U,57634,999,16181,.20754E-4,.309E-5,0
STARLINK-30329,2023-122D,2026-07-14T23:56:50.953344,15.27587624,.0001341,43.0004,93.8293,255.7383,104.3320,0,U,57635,999,16167,.15041E-3,.388E-4,0
STARLINK-30330,2023-122E,2026-07-15T01:36:34.443648,15.27570085,.0001604,42.9986,93.4905,271.1128,88.9539,0,U,57636,999,16168,-.61339E-5,-.431E-5,0
STARLINK-30311,2023-122F,2026-07-15T03:30:51.481152,15.27596815,.0001604,43.0068,92.3730,262.0383,98.0286,0,U,57637,999,16170,-.18145E-3,-.5255E-4,0
STARLINK-30328,2023-122G,2026-07-15T00:33:42.382080,15.27592046,.0001431,43.0032,82.0766,268.0943,91.9745,0,U,57638,999,16182,.37165E-4,.761E-5,0
STARLINK-30326,2023-122H,2026-07-15T02:33:42.827616,15.27573778,.0001133,43.0034,92.9216,276.2250,83.8472,0,U,57639,999,16169,.86359E-5,-.24E-6,0
STARLINK-30324,2023-122J,2026-07-14T23:51:17.699040,15.27583050,.0001379,43.0023,93.7974,258.3393,101.7304,0,U,57640,999,16166,.42195E-4,.899E-5,0
STARLINK-30312,2023-122K,2026-07-15T01:47:27.293280,15.27576253,.0001431,43.0004,92.6921,263.9385,96.1304,0,U,57641,999,16169,-.32251E-4,-.1149E-4,0
STARLINK-30263,2023-122L,2026-07-15T02:02:15.322848,15.27578232,.0000828,43.0037,92.7687,258.9171,101.1588,0,U,57642,999,16169,.18164E-4,.238E-5,0
STARLINK-30280,2023-122M,2026-07-14T23:05:02.462784,15.27574032,.000167,42.9969,93.5678,265.1113,94.9548,0,U,57643,999,16167,-.16563E-6,-.267E-5,0
STARLINK-30247,2023-122N,2026-07-12T22:20:39.748704,15.27504103,.0000487,43.0020,104.9889,267.8353,92.2442,0,U,57644,999,16136,.60249948E-3,.16316E-3,0
STARLINK-30277,2023-122P,2026-07-14T09:15:41.014368,15.27617443,.00021775,43.0101,314.8940,271.1602,88.9000,0,U,57645,999,16325,-.36112978E-3,-.10198E-3,0
STARLINK-30265,2023-122Q,2026-07-14T22:44:40.709760,15.27612707,.0001287,43.0036,93.4595,258.1320,101.9387,0,U,57646,999,16167,-.26209E-3,-.7474E-4,0
STARLINK-30286,2023-122R,2026-07-14T23:10:35.565024,15.27579592,.0001031,43.0025,93.5912,253.5700,106.5038,0,U,57647,999,16167,.20416E-4,.3E-5,0
STARLINK-30243,2023-122S,2026-07-13T03:40:05.820096,15.27643002,.00017325,43.0020,104.0604,251.6176,108.4487,0,U,57648,999,16139,-.53003369E-3,-.14847E-3,0
STARLINK-30299,2023-122U,2026-07-15T00:50:17.481120,15.27590214,.0001286,43.0044,93.2520,278.5147,81.5559,0,U,57650,999,16168,.57452E-5,-.104E-5,0
STARLINK-30294,2023-122V,2026-07-14T22:52:10.786368,15.27573895,.0001547,43.0047,82.4775,265.9568,94.1107,0,U,57651,999,16180,.12591E-4,.84E-6,0
STARLINK-30276,2023-122W,2026-07-15T02:39:14.359104,15.27638564,.0001862,43.0027,92.9567,272.1696,87.8942,0,U,57652,999,16169,-.45211E-3,-.12705E-3,0
STARLINK-30289,2023-122X,2026-07-15T00:09:52.871616,15.27579027,.0001253,43.0043,82.8301,266.2467,93.8241,0,U,57653,999,16179,.84682E-5,-.29E-6,0
STARLINK-30267,2023-124A,2026-07-14T16:37:45.431616,15.34390577,.00012162,53.1627,336.8114,84.2921,275.8221,0,U,57663,999,16301,-.5418489E-5,-.559E-5,0
STARLINK-30298,2023-124C,2026-07-14T17:07:55.371648,15.34393862,.00008176,53.1619,336.2478,93.3987,266.7109,0,U,57665,999,16302,.58780528E-4,.161E-4,0
STARLINK-30301,2023-124D,2026-07-14T23:23:44.353824,15.34685817,.0002302,53.1588,35.7598,97.5047,262.6217,0,U,57666,999,16218,.42829E-3,.14253E-3,0
STARLINK-30275,2023-124E,2026-07-14T16:04:23.123712,15.34394912,.00007934,53.1634,336.4853,96.8324,263.2769,0,U,57667,999,16301,.45000776E-4,.1145E-4,0
STARLINK-30278,2023-124F,2026-07-14T16:40:45.586848,15.34391709,.00013944,53.1622,336.6637,97.8788,262.2373,0,U,57668,999,16301,.14305769E-4,.107E-5,0
STARLINK-30271,2023-124G,2026-07-14T16:05:42.896832,15.31703515,.00010129,53.1620,336.3802,86.3093,273.8024,0,U,57669,999,16301,.29400781E-4,.548E-5,0
STARLINK-30322,2023-124H,2026-07-14T16:13:28.936704,15.34393934,.00014506,53.1632,336.5309,117.6693,242.4457,0,U,57670,999,16301,.78068547E-4,.2262E-4,0
STARLINK-30296,2023-124J,2026-07-14T16:10:28.160256,15.34398307,.00011794,53.1615,336.6456,122.9524,237.1592,0,U,57671,999,16301,-.11863969E-4,-.777E-5,0
STARLINK-30274,2023-124K,2026-07-14T17:04:55.725312,15.34399745,.00008954,53.1629,336.2812,58.9577,301.1514,0,U,57672,999,16302,-.30754514E-3,-.10752E-3,0
STARLINK-30316,2023-124L,2026-07-14T15:43:12.714528,15.34391389,.00015103,53.1625,336.5343,40.0813,320.0301,0,U,57673,999,16301,.25463841E-4,.484E-5,0
STARLINK-30313,2023-124P,2026-07-14T17:03:55.107072,15.30189970,.00012764,53.1628,336.9827,75.8368,284.2774,0,U,57676,999,16301,.9381177E-5,-.81E-6,0
